FENGYUN 1C DEB          
1 31837U 99025CJB 23255.90018717  .00010486  00000+0  18583-2 0  9992
2 31837  98.1931 320.2285 0133216 111.6877 249.8569 14.61779528862744
FENGYUN 1C DEB          
1 31838U 99025CJC 23257.95383396  .00001586  00000+0  80852-3 0  9998
2 31838  98.8050 307.2353 0039368 288.5612 194.9083 14.16777255529509
FENGYUN 1C DEB          
1 31841U 99025CJF 23257.86804687  .00003937  00000+0  18765-2 0  9998
2 31841  98.4682 119.5334 0342190  86.6930 290.3405 13.93261584478805
FENGYUN 1C DEB          
1 31843U 99025CJH 23257.85583407  .00003236  00000+0  22847-2 0  9991
2 31843  99.2205 270.7699 0700603 193.5709 164.5678 13.18435407789847
FENGYUN 1C DEB          
1 31844U 99025CJJ 23258.53010383  .00001794  00000+0  91630-3 0  9990
2 31844 100.3020 109.5346 0112091  60.1674 301.0581 14.14017568837311
FENGYUN 1C DEB          
1 31847U 99025CJM 23248.95807829  .00002888  00000+0  17456-2 0  9995
2 31847  99.0640 308.6477 0096759  42.8431 318.0224 14.05014740835660
FENGYUN 1C DEB          
1 31848U 99025CJN 23257.86941343  .00014743  00000+0  16438-2 0  9998
2 31848  96.7044 289.4353 0110143   2.9444 357.2396 14.82741718870949
FENGYUN 1C DEB          
1 31850U 99025CJQ 23258.13290368  .00008728  00000+0  11591-2 0  9997
2 31850  98.5789 221.0215 0243211 218.2056 140.1690 14.61525650536331
FENGYUN 1C DEB          
1 31851U 99025CJR 23257.54787569  .00004575  00000+0  39937-2 0  9996
2 31851  98.8128 157.3073 0219678 327.6775  31.1073 13.75868133813453
FENGYUN 1C DEB          
1 31854U 99025CJU 23257.51193193  .00000494  00000+0  34861-3 0  9998
2 31854  98.8712 273.0415 0074471 263.2394  96.0294 14.01286549577775
FENGYUN 1C DEB          
1 31857U 99025CJX 23256.15599265  .00004576  00000+0  45946-2 0  9990
2 31857  96.1914 214.8531 0328246  39.9801 322.5024 13.56551395504678
FENGYUN 1C DEB          
1 31861U 99025CKB 23258.29767456  .00002362  00000+0  28009-2 0  9993
2 31861 102.3492 282.5575 0517444 170.9055 259.7449 13.23373608558990
FENGYUN 1C DEB          
1 31877U 99025CKC 23258.28811169  .00016062  00000+0  18379-2 0  9991
2 31877  99.0145 201.8304 0162327  13.4749 347.0715 14.76968453868476
FENGYUN 1C DEB          
1 31878U 99025CKD 23257.20759220  .00009854  00000+0  16851-2 0  9996
2 31878  99.4609  32.4643 0124893 241.5003 117.3572 14.64072030860018
FENGYUN 1C DEB          
1 31879U 99025CKE 23258.28506144  .00002561  00000+0  65082-3 0  9990
2 31879  99.6976  13.5482 0222207 243.9214 113.8948 14.38101522514101
FENGYUN 1C DEB          
1 31880U 99025CKF 23257.49426628  .00001525  00000+0  12589-2 0  9994
2 31880  99.9678 351.7370 0133459 143.0638 217.9797 13.86745808820930
