[{"OBJECT_NAME":"FENGYUN 1C DEB","OBJECT_ID":"1999-025CJB","EPOCH":"2023-09-12T21:36:16.171488","MEAN_MOTION":14.61779528,"ECCENTRICITY":0.0133216,"INCLINATION":98.1931,"RA_OF_ASC_NODE":320.2285,"ARG_OF_PERICENTER":111.6877,"MEAN_ANOMALY":249.8569,"EPHEMERIS_TYPE":0,"CLASSIFICATION_TYPE":"U","NORAD_CAT_ID":31837,"ELEMENT_SET_NO":999,"REV_AT_EPOCH":86274,"BSTAR":0.0018583,"MEAN_MOTION_DOT":0.00010486,"MEAN_MOTION_DDOT":0},{"OBJECT_NAME":"FENGYUN 1C DEB","OBJECT_ID":"1999-025CJC","EPOCH":"2023-09-14T22:53:31.254144","MEAN_MOTION":14.16777255,"ECCENTRICITY":0.0039368,"INCLINATION":98.805,"RA_OF_ASC_NODE":307.2353,"ARG_OF_PERICENTER":288.5612,"MEAN_ANOMALY":194.9083,"EPHEMERIS_TYPE":0,"CLASSIFICATION_TYPE":"U","NORAD_CAT_ID":31838,"ELEMENT_SET_NO":999,"REV_AT_EPOCH":52950,"BSTAR":0.00080852,"MEAN_MOTION_DOT":1.586e-5,"MEAN_MOTION_DDOT":0},{"OBJECT_NAME":"FENGYUN 1C DEB","OBJECT_ID":"1999-025CJF","EPOCH":"2023-09-14T20:49:59.249568","MEAN_MOTION":13.93261584,"ECCENTRICITY":0.034219,"INCLINATION":98.4682,"RA_OF_ASC_NODE":119.5334,"ARG_OF_PERICENTER":86.693,"MEAN_ANOMALY":290.3405,"EPHEMERIS_TYPE":0,"CLASSIFICATION_TYPE":"U","NORAD_CAT_ID":31841,"ELEMENT_SET_NO":999,"REV_AT_EPOCH":47880,"BSTAR":0.0018765,"MEAN_MOTION_DOT":3.937e-5,"MEAN_MOTION_DDOT":0},{"OBJECT_NAME":"FENGYUN 1C DEB","OBJECT_ID":"1999-025CJH","EPOCH":"2023-09-14T20:32:24.063648","MEAN_MOTION":13.18435407,"ECCENTRICITY":0.0700603,"INCLINATION":99.2205,"RA_OF_ASC_NODE":270.7699,"ARG_OF_PERICENTER":193.5709,"MEAN_ANOMALY":164.5678,"EPHEMERIS_TYPE":0,"CLASSIFICATION_TYPE":"U","NORAD_CAT_ID":31843,"ELEMENT_SET_NO":999,"REV_AT_EPOCH":78984,"BSTAR":0.0022847,"MEAN_MOTION_DOT":3.236e-5,"MEAN_MOTION_DDOT":0},{"OBJECT_NAME":"FENGYUN 1C DEB","OBJECT_ID":"1999-025CJJ","EPOCH":"2023-09-15T12:43:20.970912","MEAN_MOTION":14.14017568,"ECCENTRICITY":0.0112091,"INCLINATION":100.302,"RA_OF_ASC_NODE":109.5346,"ARG_OF_PERICENTER":60.1674,"MEAN_ANOMALY":301.0581,"EPHEMERIS_TYPE":0,"CLASSIFICATION_TYPE":"U","NORAD_CAT_ID":31844,"ELEMENT_SET_NO":999,"REV_AT_EPOCH":83731,"BSTAR":0.0009163,"MEAN_MOTION_DOT":1.794e-5,"MEAN_MOTION_DDOT":0},{"OBJECT_NAME":"FENGYUN 1C DEB","OBJECT_ID":"1999-025CJM","EPOCH":"2023-09-05T22:59:37.964256","MEAN_MOTION":14.0501474,"ECCENTRICITY":0.0096759,"INCLINATION":99.064,"RA_OF_ASC_NODE":308.6477,"ARG_OF_PERICENTER":42.8431,"MEAN_ANOMALY":318.0224,"EPHEMERIS_TYPE":0,"CLASSIFICATION_TYPE":"U","NORAD_CAT_ID":31847,"ELEMENT_SET_NO":999,"REV_AT_EPOCH":83566,"BSTAR":0.0017456,"MEAN_MOTION_DOT":2.888e-5,"MEAN_MOTION_DDOT":0},{"OBJECT_NAME":"FENGYUN 1C DEB","OBJECT_ID":"1999-025CJN","EPOCH":"2023-09-14T20:51:57.320352","MEAN_MOTION":14.82741718,"ECCENTRICITY":0.0110143,"INCLINATION":96.7044,"RA_OF_ASC_NODE":289.4353,"ARG_OF_PERICENTER":2.9444,"MEAN_ANOMALY":357.2396,"EPHEMERIS_TYPE":0,"CLASSIFICATION_TYPE":"U","NORAD_CAT_ID":31848,"ELEMENT_SET_NO":999,"REV_AT_EPOCH":87094,"BSTAR":0.0016438,"MEAN_MOTION_DOT":0.00014743,"MEAN_MOTION_DDOT":0},{"OBJECT_NAME":"FENGYUN 1C DEB","OBJECT_ID":"1999-025CJQ","EPOCH":"2023-09-15T03:11:22.877952","MEAN_MOTION":14.6152565,"ECCENTRICITY":0.0243211,"INCLINATION":98.5789,"RA_OF_ASC_NODE":221.0215,"ARG_OF_PERICENTER":218.2056,"MEAN_ANOMALY":140.169,"EPHEMERIS_TYPE":0,"CLASSIFICATION_TYPE":"U","NORAD_CAT_ID":31850,"ELEMENT_SET_NO":999,"REV_AT_EPOCH":53633,"BSTAR":0.0011591,"MEAN_MOTION_DOT":8.728e-5,"MEAN_MOTION_DDOT":0},{"OBJECT_NAME":"FENGYUN 1C DEB","OBJECT_ID":"1999-025CJR","EPOCH":"2023-09-14T13:08:56.459616","MEAN_MOTION":13.75868133,"ECCENTRICITY":0.0219678,"INCLINATION":98.8128,"RA_OF_ASC_NODE":157.3073,"ARG_OF_PERICENTER":327.6775,"MEAN_ANOMALY":31.1073,"EPHEMERIS_TYPE":0,"CLASSIFICATION_TYPE":"U","NORAD_CAT_ID":31851,"ELEMENT_SET_NO":999,"REV_AT_EPOCH":81345,"BSTAR":0.0039937,"MEAN_MOTION_DOT":4.575e-5,"MEAN_MOTION_DDOT":0},{"OBJECT_NAME":"FENGYUN 1C DEB","OBJECT_ID":"1999-025CJU","EPOCH":"2023-09-14T12:17:10.918752","MEAN_MOTION":14.01286549,"ECCENTRICITY":0.0074471,"INCLINATION":98.8712,"RA_OF_ASC_NODE":273.0415,"ARG_OF_PERICENTER":263.2394,"MEAN_ANOMALY":96.0294,"EPHEMERIS_TYPE":0,"CLASSIFICATION_TYPE":"U","NORAD_CAT_ID":31854,"ELEMENT_SET_NO":999,"REV_AT_EPOCH":57777,"BSTAR":0.00034861,"MEAN_MOTION_DOT":4.94e-6,"MEAN_MOTION_DDOT":0},{"OBJECT_NAME":"FENGYUN 1C DEB","OBJECT_ID":"1999-025CJX","EPOCH":"2023-09-13T03:44:37.764960","MEAN_MOTION":13.56551395,"ECCENTRICITY":0.0328246,"INCLINATION":96.1914,"RA_OF_ASC_NODE":214.8531,"ARG_OF_PERICENTER":39.9801,"MEAN_ANOMALY":322.5024,"EPHEMERIS_TYPE":0,"CLASSIFICATION_TYPE":"U","NORAD_CAT_ID":31857,"ELEMENT_SET_NO":999,"REV_AT_EPOCH":50467,"BSTAR":0.0045946,"MEAN_MOTION_DOT":4.576e-5,"MEAN_MOTION_DDOT":0},{"OBJECT_NAME":"FENGYUN 1C DEB","OBJECT_ID":"1999-025CKB","EPOCH":"2023-09-15T07:08:39.081984","MEAN_MOTION":13.23373608,"ECCENTRICITY":0.0517444,"INCLINATION":102.3492,"RA_OF_ASC_NODE":282.5575,"ARG_OF_PERICENTER":170.9055,"MEAN_ANOMALY":259.7449,"EPHEMERIS_TYPE":0,"CLASSIFICATION_TYPE":"U","NORAD_CAT_ID":31861,"ELEMENT_SET_NO":999,"REV_AT_EPOCH":55899,"BSTAR":0.0028009,"MEAN_MOTION_DOT":2.362e-5,"MEAN_MOTION_DDOT":0},{"OBJECT_NAME":"FENGYUN 1C DEB","OBJECT_ID":"1999-025CKC","EPOCH":"2023-09-15T06:54:52.850016","MEAN_MOTION":14.76968453,"ECCENTRICITY":0.0162327,"INCLINATION":99.0145,"RA_OF_ASC_NODE":201.8304,"ARG_OF_PERICENTER":13.4749,"MEAN_ANOMALY":347.0715,"EPHEMERIS_TYPE":0,"CLASSIFICATION_TYPE":"U","NORAD_CAT_ID":31877,"ELEMENT_SET_NO":999,"REV_AT_EPOCH":86847,"BSTAR":0.0018379,"MEAN_MOTION_DOT":0.00016062,"MEAN_MOTION_DDOT":0},{"OBJECT_NAME":"FENGYUN 1C DEB","OBJECT_ID":"1999-025CKD","EPOCH":"2023-09-14T04:58:55.966080","MEAN_MOTION":14.6407203,"ECCENTRICITY":0.0124893,"INCLINATION":99.4609,"RA_OF_ASC_NODE":32.4643,"ARG_OF_PERICENTER":241.5003,"MEAN_ANOMALY":117.3572,"EPHEMERIS_TYPE":0,"CLASSIFICATION_TYPE":"U","NORAD_CAT_ID":31878,"ELEMENT_SET_NO":999,"REV_AT_EPOCH":86001,"BSTAR":0.0016851,"MEAN_MOTION_DOT":9.854e-5,"MEAN_MOTION_DDOT":0},{"OBJECT_NAME":"FENGYUN 1C DEB","OBJECT_ID":"1999-025CKE","EPOCH":"2023-09-15T06:50:29.308416","MEAN_MOTION":14.38101522,"ECCENTRICITY":0.0222207,"INCLINATION":99.6976,"RA_OF_ASC_NODE":13.5482,"ARG_OF_PERICENTER":243.9214,"MEAN_ANOMALY":113.8948,"EPHEMERIS_TYPE":0,"CLASSIFICATION_TYPE":"U","NORAD_CAT_ID":31879,"ELEMENT_SET_NO":999,"REV_AT_EPOCH":51410,"BSTAR":0.00065082,"MEAN_MOTION_DOT":2.561e-5,"MEAN_MOTION_DDOT":0},{"OBJECT_NAME":"FENGYUN 1C DEB","OBJECT_ID":"1999-025CKF","EPOCH":"2023-09-14T11:51:44.606592","MEAN_MOTION":13.86745808,"ECCENTRICITY":0.0133459,"INCLINATION":99.9678,"RA_OF_ASC_NODE":351.737,"ARG_OF_PERICENTER":143.0638,"MEAN_ANOMALY":217.9797,"EPHEMERIS_TYPE":0,"CLASSIFICATION_TYPE":"U","NORAD_CAT_ID":31880,"ELEMENT_SET_NO":999,"REV_AT_EPOCH":82093,"BSTAR":0.0012589,"MEAN_MOTION_DOT":1.525e-5,"MEAN_MOTION_DDOT":0}]
